start=new Date('2023-05-13T00:00:00.000Z').valueOf();
sats=[{"RCS_SIZE":"LARGE","NORAD_CAT_ID":"52307","CLASSIFICATION_TYPE":"U","TLE_LINE2":"2 52307  53.2169  54.5755 0001350  90.5942 269.5205 15.08838740 58628","COUNTRY_CODE":"US","MEAN_ELEMENT_THEORY":"SGP4","EPHEMERIS_TYPE":"0","TLE_LINE1":"1 52307U 22041AY  23132.10373333  .00000048  00000-0  21132-4 0  9995","GP_ID":"231672574","ECCENTRICITY":"0.00013500","FILE":"3905921","EPOCH":"2023-05-12T02:29:22.559712","DECAY_DATE":null,"MEAN_MOTION_DDOT":"0.0000000000000","OBJECT_ID":"2022-041AY","ELEMENT_SET_NO":"999","INCLINATION":"53.2169","PERIAPSIS":"538.815","LAUNCH_DATE":"2022-04-21","ARG_OF_PERICENTER":"90.5942","REV_AT_EPOCH":"5862","RA_OF_ASC_NODE":"54.5755","BSTAR":"0.00002113200000","SEMIMAJOR_AXIS":"6917.884","REF_FRAME":"TEME","MEAN_MOTION_DOT":"0.00000048","APOAPSIS":"540.683","OBJECT_NAME":"STARLINK-3755","OBJECT_TYPE":"PAYLOAD","MEAN_ANOMALY":"269.5205","TIME_SYSTEM":"UTC","SITE":"AFETR","CENTER_NAME":"EARTH","PERIOD":"95.438","MEAN_MOTION":"15.08838740"},{"OBJECT_ID":"2022-041AZ","INCLINATION":"53.2165","ELEMENT_SET_NO":"999","PERIAPSIS":"538.919","LAUNCH_DATE":"2022-04-21","REV_AT_EPOCH":"6009","ARG_OF_PERICENTER":"78.4945","RA_OF_ASC_NODE":"41.1029","BSTAR":"0.00063298000000","SEMIMAJOR_AXIS":"6917.850","REF_FRAME":"TEME","MEAN_MOTION_DOT":"0.00009803","APOAPSIS":"540.511","OBJECT_NAME":"STARLINK-3745","OBJECT_TYPE":"PAYLOAD","TIME_SYSTEM":"UTC","MEAN_ANOMALY":"281.6176","CENTER_NAME":"EARTH","SITE":"AFETR","PERIOD":"95.437","MEAN_MOTION":"15.08849978","RCS_SIZE":"LARGE","NORAD_CAT_ID":"52308","CLASSIFICATION_TYPE":"U","TLE_LINE2":"2 52308  53.2165  41.1029 0001151  78.4945 281.6176 15.08849978 60099","MEAN_ELEMENT_THEORY":"SGP4","COUNTRY_CODE":"US","EPHEMERIS_TYPE":"0","TLE_LINE1":"1 52308U 22041AZ  23132.87745430  .00009803  00000-0  63298-3 0  9997","GP_ID":"231683534","ECCENTRICITY":"0.00011510","FILE":"3906265","MEAN_MOTION_DDOT":"0.0000000000000","DECAY_DATE":null,"EPOCH":"2023-05-12T21:03:32.051520"},{"BSTAR":"0.00046285000000","RA_OF_ASC_NODE":"41.0851","SEMIMAJOR_AXIS":"6917.846","REF_FRAME":"TEME","OBJECT_ID":"2022-041BA","INCLINATION":"53.2170","ELEMENT_SET_NO":"999","PERIAPSIS":"538.916","LAUNCH_DATE":"2022-04-21","REV_AT_EPOCH":"6009","ARG_OF_PERICENTER":"69.9042","MEAN_ANOMALY":"290.2074","TIME_SYSTEM":"UTC","SITE":"AFETR","CENTER_NAME":"EARTH","PERIOD":"95.437","MEAN_MOTION":"15.08851210","MEAN_MOTION_DOT":"0.00007088","APOAPSIS":"540.507","OBJECT_NAME":"STARLINK-3756","OBJECT_TYPE":"PAYLOAD","EPHEMERIS_TYPE":"0","RCS_SIZE":"LARGE","NORAD_CAT_ID":"52309","CLASSIFICATION_TYPE":"U","TLE_LINE2":"2 52309  53.2170  41.0851 0001150  69.9042 290.2074 15.08851210 60095","MEAN_ELEMENT_THEORY":"SGP4","COUNTRY_CODE":"US","DECAY_DATE":null,"EPOCH":"2023-05-12T21:08:49.895520","MEAN_MOTION_DDOT":"0.0000000000000","TLE_LINE1":"1 52309U 22041BA  23132.88113305  .00007088  00000-0  46285-3 0  9999","GP_ID":"231710148","ECCENTRICITY":"0.00011500","FILE":"3906381"},{"OBJECT_NAME":"STARLINK-3688","MEAN_MOTION_DOT":"-0.00000289","APOAPSIS":"540.363","OBJECT_TYPE":"PAYLOAD","CENTER_NAME":"EARTH","SITE":"AFETR","PERIOD":"95.437","TIME_SYSTEM":"UTC","MEAN_ANOMALY":"284.7944","MEAN_MOTION":"15.08846227","INCLINATION":"53.2185","ELEMENT_SET_NO":"999","OBJECT_ID":"2022-041BB","ARG_OF_PERICENTER":"75.3150","REV_AT_EPOCH":"6010","PERIAPSIS":"539.090","LAUNCH_DATE":"2022-04-21","RA_OF_ASC_NODE":"40.7189","BSTAR":"-0.00000010650000","SEMIMAJOR_AXIS":"6917.861","REF_FRAME":"TEME","TLE_LINE1":"1 52310U 22041BB  23132.91790622 -.00000289  00000-0 -10650-6 0  9996","FILE":"3906175","GP_ID":"231681370","ECCENTRICITY":"0.00009200","EPOCH":"2023-05-12T22:01:47.097408","DECAY_DATE":null,"MEAN_MOTION_DDOT":"0.0000000000000","RCS_SIZE":"LARGE","NORAD_CAT_ID":"52310","TLE_LINE2":"2 52310  53.2185  40.7189 0000920  75.3150 284.7944 15.08846227 60106","COUNTRY_CODE":"US","MEAN_ELEMENT_THEORY":"SGP4","CLASSIFICATION_TYPE":"U","EPHEMERIS_TYPE":"0"},{"ARG_OF_PERICENTER":"84.3627","REV_AT_EPOCH":"6009","PERIAPSIS":"538.870","LAUNCH_DATE":"2022-04-21","ELEMENT_SET_NO":"999","INCLINATION":"53.2183","OBJECT_ID":"2022-041BC","REF_FRAME":"TEME","SEMIMAJOR_AXIS":"6917.856","BSTAR":"0.00005390700000","RA_OF_ASC_NODE":"41.1188","OBJECT_TYPE":"PAYLOAD","OBJECT_NAME":"STARLINK-3750","MEAN_MOTION_DOT":"0.00000570","APOAPSIS":"540.572","MEAN_MOTION":"15.08848082","CENTER_NAME":"EARTH","SITE":"AFETR","PERIOD":"95.437","TIME_SYSTEM":"UTC","MEAN_ANOMALY":"275.7505","TLE_LINE2":"2 52311  53.2183  41.1188 0001230  84.3627 275.7505 15.08848082 60095","MEAN_ELEMENT_THEORY":"SGP4","COUNTRY_CODE":"US","CLASSIFICATION_TYPE":"U","RCS_SIZE":"LARGE","NORAD_CAT_ID":"52311","EPHEMERIS_TYPE":"0","FILE":"3906178","GP_ID":"231681168","ECCENTRICITY":"0.00012300","TLE_LINE1":"1 52311U 22041BC  23132.87376724  .00000570  00000-0  53907-4 0  9996","DECAY_DATE":null,"EPOCH":"2023-05-12T20:58:13.489536","MEAN_MOTION_DDOT":"0.0000000000000"},{"TLE_LINE1":"1 52312U 22041BD  23132.03840968 -.00000256  00000-0  19909-5 0  9998","FILE":"3905921","GP_ID":"231671332","ECCENTRICITY":"0.00012060","DECAY_DATE":null,"EPOCH":"2023-05-12T00:55:18.596352","MEAN_MOTION_DDOT":"0.0000000000000","RCS_SIZE":"LARGE","NORAD_CAT_ID":"52312","TLE_LINE2":"2 52312  53.2171  44.8215 0001206  87.4593 272.6537 15.08833051 59979","COUNTRY_CODE":"US","MEAN_ELEMENT_THEORY":"SGP4","CLASSIFICATION_TYPE":"U","EPHEMERIS_TYPE":"0","OBJECT_NAME":"STARLINK-3752","MEAN_MOTION_DOT":"-0.00000256","APOAPSIS":"540.601","OBJECT_TYPE":"PAYLOAD","CENTER_NAME":"EARTH","SITE":"AFETR","PERIOD":"95.438","TIME_SYSTEM":"UTC","MEAN_ANOMALY":"272.6537","MEAN_MOTION":"15.08833051","ELEMENT_SET_NO":"999","INCLINATION":"53.2171","OBJECT_ID":"2022-041BD","REV_AT_EPOCH":"5997","ARG_OF_PERICENTER":"87.4593","PERIAPSIS":"538.932","LAUNCH_DATE":"2022-04-21","RA_OF_ASC_NODE":"44.8215","BSTAR":"0.00000199090000","SEMIMAJOR_AXIS":"6917.902","REF_FRAME":"TEME"},{"DECAY_DATE":null,"EPOCH":"2023-05-12T01:00:36.965664","MEAN_MOTION_DDOT":"0.0000000000000","TLE_LINE1":"1 52313U 22041BE  23132.04209451  .00003031  00000-0  20846-3 0  9999","GP_ID":"231672081","ECCENTRICITY":"0.00012060","FILE":"3905921","EPHEMERIS_TYPE":"0","RCS_SIZE":"LARGE","NORAD_CAT_ID":"52313","CLASSIFICATION_TYPE":"U","TLE_LINE2":"2 52313  53.2162  44.8543 0001206  72.2292 287.8832 15.08838449 59974","MEAN_ELEMENT_THEORY":"SGP4","COUNTRY_CODE":"US","MEAN_ANOMALY":"287.8832","TIME_SYSTEM":"UTC","SITE":"AFETR","CENTER_NAME":"EARTH","PERIOD":"95.438","MEAN_MOTION":"15.08838449","MEAN_MOTION_DOT":"0.00003031","APOAPSIS":"540.584","OBJECT_NAME":"STARLINK-3749","OBJECT_TYPE":"PAYLOAD","RA_OF_ASC_NODE":"44.8543","BSTAR":"0.00020846000000","REF_FRAME":"TEME","SEMIMAJOR_AXIS":"6917.885","OBJECT_ID":"2022-041BE","INCLINATION":"53.2162","ELEMENT_SET_NO":"999","PERIAPSIS":"538.916","LAUNCH_DATE":"2022-04-21","REV_AT_EPOCH":"5997","ARG_OF_PERICENTER":"72.2292"},{"DECAY_DATE":null,"EPOCH":"2023-05-12T08:41:38.531328","MEAN_MOTION_DDOT":"0.0000000000000","FILE":"3906381","ECCENTRICITY":"0.00012630","GP_ID":"231708654","TLE_LINE1":"1 52331U 22045A   23132.36225152 -.00000396  00000-0 -67811-5 0  9992","EPHEMERIS_TYPE":"0","MEAN_ELEMENT_THEORY":"SGP4","COUNTRY_CODE":"US","TLE_LINE2":"2 52331  53.2156 163.4159 0001263  95.7682 264.3454 15.08835837 59792","CLASSIFICATION_TYPE":"U","NORAD_CAT_ID":"52331","RCS_SIZE":"LARGE","MEAN_MOTION":"15.08835837","PERIOD":"95.438","SITE":"AFETR","CENTER_NAME":"EARTH","MEAN_ANOMALY":"264.3454","TIME_SYSTEM":"UTC","OBJECT_TYPE":"PAYLOAD","OBJECT_NAME":"STARLINK-3889","APOAPSIS":"540.632","MEAN_MOTION_DOT":"-0.00000396","SEMIMAJOR_AXIS":"6917.893","REF_FRAME":"TEME","RA_OF_ASC_NODE":"163.4159","BSTAR":"-0.00000678110000","ARG_OF_PERICENTER":"95.7682","REV_AT_EPOCH":"5979","LAUNCH_DATE":"2022-04-29","PERIAPSIS":"538.884","INCLINATION":"53.2156","ELEMENT_SET_NO":"999","OBJECT_ID":"2022-045A"},{"NORAD_CAT_ID":"52332","RCS_SIZE":"LARGE","CLASSIFICATION_TYPE":"U","MEAN_ELEMENT_THEORY":"SGP4","COUNTRY_CODE":"US","TLE_LINE2":"2 52332  53.2157 161.5860 0001337  94.4307 265.6838 15.08838776 59856","EPHEMERIS_TYPE":"0","TLE_LINE1":"1 52332U 22045B   23132.77073153  .00000865  00000-0  72458-4 0  9991","ECCENTRICITY":"0.00013370","GP_ID":"231708904","FILE":"3906381","DECAY_DATE":null,"EPOCH":"2023-05-12T18:29:51.204192","MEAN_MOTION_DDOT":"0.0000000000000","OBJECT_ID":"2022-045B","ELEMENT_SET_NO":"999","INCLINATION":"53.2157","LAUNCH_DATE":"2022-04-29","PERIAPSIS":"538.824","REV_AT_EPOCH":"5985","ARG_OF_PERICENTER":"94.4307","BSTAR":"0.00007245800000","RA_OF_ASC_NODE":"161.5860","SEMIMAJOR_AXIS":"6917.884","REF_FRAME":"TEME","APOAPSIS":"540.674","MEAN_MOTION_DOT":"0.00000865","OBJECT_NAME":"STARLINK-3831","OBJECT_TYPE":"PAYLOAD","MEAN_ANOMALY":"265.6838","TIME_SYSTEM":"UTC","PERIOD":"95.438","SITE":"AFETR","CENTER_NAME":"EARTH","MEAN_MOTION":"15.08838776"},{"DECAY_DATE":null,"EPOCH":"2023-05-12T08:52:14.514816","MEAN_MOTION_DDOT":"0.0000000000000","ECCENTRICITY":"0.00012230","GP_ID":"231709650","FILE":"3906381","TLE_LINE1":"1 52333U 22045C   23132.36961244  .00000105  00000-0  24700-4 0  9998","EPHEMERIS_TYPE":"0","CLASSIFICATION_TYPE":"U","MEAN_ELEMENT_THEORY":"SGP4","COUNTRY_CODE":"US","TLE_LINE2":"2 52333  53.2159 163.3875 0001223  90.9284 269.1848 15.08835102 59786","NORAD_CAT_ID":"52333","RCS_SIZE":"LARGE","MEAN_MOTION":"15.08835102","TIME_SYSTEM":"UTC","MEAN_ANOMALY":"269.1848","PERIOD":"95.438","CENTER_NAME":"EARTH","SITE":"AFETR","OBJECT_TYPE":"PAYLOAD","APOAPSIS":"540.606","MEAN_MOTION_DOT":"0.00000105","OBJECT_NAME":"STARLINK-3847","SEMIMAJOR_AXIS":"6917.895","REF_FRAME":"TEME","BSTAR":"0.00002470000000","RA_OF_ASC_NODE":"163.3875","LAUNCH_DATE":"2022-04-29","PERIAPSIS":"538.914","REV_AT_EPOCH":"5978","ARG_OF_PERICENTER":"90.9284","OBJECT_ID":"2022-045C","INCLINATION":"53.2159","ELEMENT_SET_NO":"999"}];
